QIANFAN-41              
1 62242U 24232F   25223.22204780  .00000049  00000+0  57975-4 0  9997
2 62242  88.9929  53.6780 0013792 180.2745 179.8401 13.50960222 82573
QIANFAN-42              
1 62243U 24232G   25223.27323744  .00000145  00000+0  56152-4 0  9998
2 62243  88.9928  51.4739 0016907 123.4691 236.8120 14.24336170 83791
QIANFAN-43              
1 62244U 24232H   25223.21793092  .00000041  00000+0  45343-4 0  9995
2 62244  88.9933  53.7384 0015125 186.4062 173.6898 13.50953023 51189
QIANFAN-44              
1 62245U 24232J   25223.27967178  .00000028  00000+0  25018-4 0  9992
2 62245  88.9932  53.5446 0013453 182.2458 177.8635 13.50962950 82662
QIANFAN-45              
1 62246U 24232K   25223.24674986  .00000036  00000+0  37084-4 0  9997
2 62246  88.9935  53.6903 0014118 182.4376 177.6709 13.50958748 82586
QIANFAN-46              
1 62247U 24232L   25223.27142587  .00000039  00000+0  41539-4 0  9991
2 62247  88.9931  53.7619 0014002 187.9619 172.1312 13.50960786 82541
QIANFAN-47              
1 62248U 24232M   25223.27546892  .00000039  00000+0  41517-4 0  9995
2 62248  88.9927  53.6993 0014448 187.2788 172.8156 13.50960536 82574
QIANFAN-48              
1 62249U 24232N   25223.23852160  .00000052  00000+0  61945-4 0  9992
2 62249  88.9931  53.7000 0016595 191.1308 168.9478 13.50963424 82579
